METEOSAT-5 (MOP-2)      
1 21140U 91015B   09011.21325260 -.00000025  00000-0  10000-3 0  6221
2 21140  10.5714  50.7728 0006709 146.9709 213.0917  0.98450885 67536
METEOSAT-6 (MOP-3)      
1 22912U 93073B   09010.79564691 -.00000026  00000-0  10000-3 0  8751
2 22912   7.9995  61.7393 0002488 246.0019 156.6903  1.00275794 53890
HIMAWARI-5 (GMS-5)      
1 23522U 95011B   09010.56613002 -.00000219  00000-0  10000-3 0   812
2 23522   7.1421  64.7234 0005171 308.6364  51.2560  0.99404261 50370
GOES 10                 
1 24786U 97019A   09010.10674611 -.00000282  00000-0  10000-3 0  7220
2 24786   3.2357  76.6142 0005322 230.8132 140.5646  1.00257877 42926
ORBVIEW 2 (SEASTAR)     
1 24883U 97037A   09011.33556752 -.00000012  00000-0  74106-5 0  6318
2 24883  98.3233 134.4408 0001477   6.9713 353.1518 14.59971491609555
METEOSAT-7              
1 24932U 97049B   09010.86242713  .00000064  00000-0  10000-3 0  4991
2 24932   4.8094  71.5248 0000866 238.3081 168.4004  1.00273895 41619
NOAA 15                 
1 25338U 98030A   09011.30511093  .00000026  00000-0  29473-4 0  7708
2 25338  98.5719   4.0578 0010996 150.6693 209.5135 14.24741043554437
GOES 11                 
1 26352U 00022A   09010.53730311  .00000088  00000-0  10000-3 0  1379
2 26352   0.0502 102.3867 0005944 164.3091 262.2025  1.00283619 31823
FENGYUN 2B              
1 26382U 00032A   09010.24002434  .00000043  00000-0  10000-3 0  1280
2 26382   3.9431  74.4558 0005921 185.3706 174.4118  1.00071869 31285
NOAA 16                 
1 26536U 00055A   09011.32239290  .00000250  00000-0  16059-3 0  2469
2 26536  99.1725  11.2288 0010533   5.7592 354.3703 14.12509053428154
GOES 12                 
1 26871U 01031A   09011.48771729 -.00000251  00000-0  10000-3 0  8863
2 26871   0.3766 262.3950 0000917 103.2474 206.2980  1.00273254 27430
FENGYUN 1D              
1 27431U 02024B   09011.31159912  .00000058  00000-0  57088-4 0  4076
2 27431  98.6153   7.6782 0015861 137.4568 222.7821 14.09278664342714
NOAA 17                 
1 27453U 02032A   09011.31591845 -.00000000  00000-0  18407-4 0  2599
2 27453  98.5094  75.6303 0011240 217.5091 142.5309 14.24031841340420
METEOSAT-8 (MSG-1)      
1 27509U 02040B   09009.87158685  .00000072  00000-0  10000-3 0   898
2 27509   0.4516 353.2537 0001989 283.0603 156.6525  1.00280527 23413
KALPANA-1 (METSAT 1)    
1 27525U 02043A   09010.94806978 -.00000076  00000-0  10000-3 0  7436
2 27525   0.0514  85.1155 0001039 306.5657 134.1549  1.00270892 23228
INSAT-3A                
1 27714U 03013A   09007.96640419 -.00000243  00000-0  10000-3 0  4330
2 27714   0.0976  81.8502 0000392 352.1361 115.0547  1.00269671 21091
FENGYUN 2C              
1 28451U 04042A   09010.94742940 -.00000331  00000-0  00000+0 0  3305
2 28451   1.0013  78.4348 0002943 311.3085 166.8279  1.00270626 15470
HIMAWARI 6 (MTSAT-1R)   
1 28622U 05006A   09011.14800519 -.00000281  00000-0  10000-3 0  9547
2 28622   0.0401 113.9063 0002521  25.9642 164.2295  1.00269105 14174
NOAA 18                 
1 28654U 05018A   09011.43165922 -.00000267  00000-0 -12362-3 0  7411
2 28654  98.8922 316.0225 0015235  85.0392 275.2518 14.11222970187844
METEOSAT-9 (MSG-2)      
1 28912U 05049B   09010.77833046  .00000007  00000-0  68335-2 0  4469
2 28912   0.3048 153.2829 0001496 342.5223 255.6866  1.00284369 11272
MTSAT-2                 
1 28937U 06004A   09010.64652942 -.00000241  00000-0  10000-3 0  5197
2 28937   0.0138  49.7635 0002410 243.0022 195.2661  1.00269773 10654
FORMOSAT 3A             
1 29047U 06011A   09010.43324603 -.00000046  00000-0 -21760-5 0  8560
2 29047  71.9800 342.3243 0049814  54.8819 305.6987 14.27089215145222
FORMOSAT 3B             
1 29048U 06011B   09010.74686391  .00000389  00000-0  17471-3 0  9011
2 29048  71.9695 257.3369 0045250   2.9335 357.2028 14.27106144147745
FORMOSAT 3C             
1 29049U 06011C   09010.55386419  .00000361  00000-0  16364-3 0  8388
2 29049  72.0221  45.9075 0033833  68.7237 291.7498 14.27108004143491
FORMOSAT 3D             
1 29050U 06011D   09010.92661810  .00001096  00000-0  26646-3 0  1217
2 29050  72.0092 238.1090 0053035 324.6756  35.0877 14.53978655148387
FORMOSAT 3E             
1 29051U 06011E   09010.79512662  .00000372  00000-0  16522-3 0  9028
2 29051  72.0092 314.6951 0071206 295.9788  63.3997 14.27107885146115
FORMOSAT 3F             
1 29052U 06011F   09010.98295059  .00000359  00000-0  16273-3 0  9183
2 29052  72.0366  15.8093 0039727  36.9057 323.4775 14.27100683144448
GOES 13                 
1 29155U 06018A   09010.54818782 -.00000089  00000-0  00000-0 0  5499
2 29155   0.3892  87.8218 0004224 185.5536 289.5831  1.00270480  9675
METOP-A                 
1 29499U 06044A   09010.93366625 -.00000094  00000-0 -23028-4 0  7045
2 29499  98.7119  73.3979 0000851  93.1905 266.9359 14.21485099115672
FENGYUN 2D              
1 29640U 06053A   09011.00573380 -.00000198  00000-0  10000-3 0  5542
2 29640   0.6761 254.3503 0001924  68.6351 236.4596  1.00268497  7728
FENGYUN 3A              
1 32958U 08026A   09010.80806276  .00000167  00000-0  10000-3 0  2047
2 32958  98.7894  83.6727 0000294 132.2420 227.8739 14.19579309 32456
